[{"OBJECT_NAME":"STARLINK-2537","OBJECT_ID":"2021-036AB","EPOCH":"2026-03-10T00:00:02.999808","MEAN_MOTION":15.29116481,"ECCENTRICITY":0.00018949,"INCLINATION":53.1505,"RA_OF_ASC_NODE":89.3057,"ARG_OF_PERICENTER":87.1415,"MEAN_ANOMALY":103.8325,"EPHEMERIS_TYPE":0,"CLASSIFICATION_TYPE":"U","NORAD_CAT_ID":48301,"ELEMENT_SET_NO":999,"REV_AT_EPOCH":574,"BSTAR":0.0048677656,"MEAN_MOTION_DOT":0.00141769,"MEAN_MOTION_DDOT":0},{"OBJECT_NAME":"COSMOS 1869","OBJECT_ID":"1987-062A","EPOCH":"2026-03-09T20:30:29.271744","MEAN_MOTION":15.35392408,"ECCENTRICITY":0.00185772,"INCLINATION":82.5127,"RA_OF_ASC_NODE":201.6716,"ARG_OF_PERICENTER":61.4986,"MEAN_ANOMALY":298.8125,"EPHEMERIS_TYPE":0,"CLASSIFICATION_TYPE":"U","NORAD_CAT_ID":18214,"ELEMENT_SET_NO":999,"REV_AT_EPOCH":8931,"BSTAR":0.00042037944,"MEAN_MOTION_DOT":0.00014573,"MEAN_MOTION_DDOT":0}]
